IRIDIUM 921             
1 24873U 97034E   24156.44589312  .00036849  00000+0  96319-3 0  9991
2 24873  86.3793 294.4201 0002407 296.1325  63.9681 15.38606404473504
IRIDIUM 26              
1 24903U 97043A   24155.60525044  .00000713  00000+0  23717-3 0  9997
2 24903  86.3951 269.4525 0001955  94.5221 265.6199 14.36384120402385
IRIDIUM 22              
1 24907U 97043E   24156.41729606  .00000700  00000+0  23792-3 0  9990
2 24907  86.3953 272.3400 0002186  93.6438 266.5008 14.35273901402565
DUMMY MASS 1            
1 24925U 97048A   24156.13134222  .00000782  00000+0  85765-4 0  9997
2 24925  86.3324 310.0242 0008662  57.3837 302.8222 14.86226633449206
DUMMY MASS 2            
1 24926U 97048B   24155.89648897  .00000746  00000+0  82156-4 0  9999
2 24926  86.3325 311.6739 0009699  65.8870 294.3368 14.85984136448717
IRIDIUM 29              
1 24944U 97051A   24156.49384867  .00000741  00000+0  24988-3 0  9997
2 24944  86.3934 302.2278 0002328  88.1336 272.0127 14.35721371399282
IRIDIUM 33              
1 24946U 97051C   24155.81105855  .00000554  00000+0  19020-3 0  9995
2 24946  86.3849 301.7661 0006372 221.5821 138.4891 14.34375184398495
IRIDIUM 28              
1 24948U 97051E   24155.80967750  .00000704  00000+0  23270-3 0  9995
2 24948  86.3939 300.2453 0001750  98.1255 262.0140 14.36673057399500
